[{"OBJECT_NAME":"STARLINK-1922","OBJECT_ID":"2020-074Q","EPOCH":"2026-03-10T00:00:02.999808","MEAN_MOTION":15.64274627,"ECCENTRICITY":0.00017441,"INCLINATION":53.0458,"RA_OF_ASC_NODE":282.2242,"ARG_OF_PERICENTER":17.2501,"MEAN_ANOMALY":256.8441,"EPHEMERIS_TYPE":0,"CLASSIFICATION_TYPE":"U","NORAD_CAT_ID":46753,"ELEMENT_SET_NO":999,"REV_AT_EPOCH":594,"BSTAR":0.0021356149,"MEAN_MOTION_DOT":0.00212554,"MEAN_MOTION_DDOT":0},{"OBJECT_NAME":"ARCTICSAT 1 (RS74S)","OBJECT_ID":"2024-199AD","EPOCH":"2026-03-09T22:49:47.491968","MEAN_MOTION":15.65786404,"ECCENTRICITY":0.00034861,"INCLINATION":97.3086,"RA_OF_ASC_NODE":307.2864,"ARG_OF_PERICENTER":247.2949,"MEAN_ANOMALY":112.7943,"EPHEMERIS_TYPE":0,"CLASSIFICATION_TYPE":"U","NORAD_CAT_ID":61762,"ELEMENT_SET_NO":999,"REV_AT_EPOCH":12243,"BSTAR":0.0011044428,"MEAN_MOTION_DOT":0.00112957,"MEAN_MOTION_DDOT":0}]
